{
    "links": {
        "self": "http://www.neowsapp.com/rest/v1/neo/3384069?api_key=iIulBulltgU6a56xZRHN4H3l9WmuAYTsLGpBGhQ2"
    },
    "id": "3384069",
    "neo_reference_id": "3384069",
    "name": "(2007 RY9)",
    "designation": "2007 RY9",
    "nasa_jpl_url": "http://ssd.jpl.nasa.gov/sbdb.cgi?sstr=3384069",
    "absolute_magnitude_h": 23.4,
    "estimated_diameter": {
        "kilometers": {
            "estimated_diameter_min": 0.0555334912,
            "estimated_diameter_max": 0.1241766613
        },
        "meters": {
            "estimated_diameter_min": 55.5334911581,
            "estimated_diameter_max": 124.1766612574
        },
        "miles": {
            "estimated_diameter_min": 0.0345069009,
            "estimated_diameter_max": 0.0771597762
        },
        "feet": {
            "estimated_diameter_min": 182.1964991311,
            "estimated_diameter_max": 407.4037573197
        }
    },
    "is_potentially_hazardous_asteroid": false,
    "close_approach_data": [
        {
            "close_approach_date": "2007-09-13",
            "close_approach_date_full": "2007-Sep-13 02:03",
            "epoch_date_close_approach": 1189648980000,
            "relative_velocity": {
                "kilometers_per_second": "14.8967547693",
                "kilometers_per_hour": "53628.3171695984",
                "miles_per_hour": "33322.5507435208"
            },
            "miss_distance": {
                "astronomical": "0.074190354",
                "lunar": "28.860047706",
                "kilometers": "11098718.93294598",
                "miles": "6896424.153495324"
            },
            "orbiting_body": "Earth"
        }
    ],
    "orbital_data": {
        "orbit_id": "11",
        "orbit_determination_date": "2017-04-06 09:06:06",
        "first_observation_date": "2007-09-11",
        "last_observation_date": "2007-09-18",
        "data_arc_in_days": 7,
        "observations_used": 44,
        "orbit_uncertainty": "9",
        "minimum_orbit_intersection": ".0729401",
        "jupiter_tisserand_invariant": "4.956",
        "epoch_osculation": "2454357.5",
        "eccentricity": ".1525756578236886",
        "semi_major_axis": "1.269617443311596",
        "inclination": "28.51396705559239",
        "ascending_node_longitude": "169.3162567909019",
        "orbital_period": "522.5258106915591",
        "perihelion_distance": "1.0759047267139",
        "perihelion_argument": "192.9066999847519",
        "aphelion_distance": "1.463330159909293",
        "perihelion_time": "2454370.405886200413",
        "mean_anomaly": "351.1083453925471",
        "mean_motion": ".6889611816946281",
        "equinox": "J2000",
        "orbit_class": {
            "orbit_class_type": "AMO",
            "orbit_class_description": "Near-Earth asteroid orbits similar to that of 1221 Amor",
            "orbit_class_range": "1.017 AU < q (perihelion) < 1.3 AU"
        }
    },
    "is_sentry_object": false
}